01461   10.13  0.15 K2669  35.93208  333.77580  104.60686   15.31465  0.0518186  0.17806984   3.1290257  0 MPO980544  7199  51 1935-2026 0.59 M-v 3Ek MPCORBFIT  0000   (1461) Jean-Jacques       20260405
01462   11.38  0.15 K2669 213.20036  186.21545   24.73247    0.96401  0.1081967  0.17661022   3.1462423  0 MPO980544  7372  40 1938-2026 0.68 M-v 3Ek MPCORBFIT  0000   (1462) Zamenhof           20260206
01463   10.71  0.15 K2669  12.16526   80.32206  329.08391    7.26049  0.1946056  0.17637279   3.1490653  0 MPO980544  9488  43 1938-2026 0.53 M-v 3Ek MPCORBFIT  0000   (1463) Nordenmarkia       20260225
01464   10.98  0.15 K2669 142.55311   61.31842   86.54973   11.54398  0.0453671  0.18921128   3.0049554  0 E2026-M59  5984  42 1939-2026 0.67 M-v 3Ek MPCORBFIT  0000   (1464) Armisticia         20260620
01465   11.74  0.15 K2669 230.61468   50.15494  166.91160    9.92227  0.1778546  0.18719077   3.0265400  0 MPO980544  6282  38 1938-2026 0.66 M-v 3Ek MPCORBFIT  0000   (1465) Autonoma           20260307
01466   12.42  0.15 K2669  27.23369   75.56539  154.78944   13.14224  0.1558266  0.26879697   2.3778610  0 E2026-M59 12879  37 1938-2026 0.49 M-v 3Ek MPCLINUX   0007   (1466) Mundleria          20260620
01467    8.77  0.15 K2669  40.60663  350.32567  326.28921   21.89880  0.1265655  0.15809867   3.3872759  0 E2026-M59  7999  51 1930-2026 0.62 M-v 3Ek MPCORBFIT  0000   (1467) Mashona            20260619
01468   12.69  0.15 K2669 344.85398   23.09878  308.85532    9.94212  0.2714639  0.30295240   2.1955994  0 E2026-M59  4980  29 1938-2026 0.70 M-v 3Ek MPCORBFIT  0005   (1468) Zomba              20260621
01469    9.93  0.15 K2669 264.10965  206.94826  188.67657   13.41927  0.0607905  0.17836957   3.1255194  0 E2026-M59  8377  45 1931-2026 0.61 M-v 3Ek MPCORBFIT  0000   (1469) Linzia             20260620
01470   11.13  0.15 K2669 242.00577  338.16398  358.17899    3.20060  0.0739854  0.17582826   3.1555636  0 E2026-M59  6109  41 1938-2026 0.74 M-v 3Ek MPCLINUX   0000   (1470) Carla              20260620
01471   11.13  0.15 K2669 173.32349   93.22762  321.84155   13.60702  0.1191922  0.22021503   2.7158435  0 E2026-M59  8054  42 1931-2026 0.55 M-v 3Ek MPCORBFIT  0000   (1471) Tornio             20260620
01472   12.39  0.15 K2669 111.45333  319.14261   45.12187    4.56544  0.1985098  0.29499582   2.2349036  0 MPO980544  6041  37 1931-2026 0.66 M-v 3Ek MPCORBFIT  0000   (1472) Muonio             20260405
01473   11.88  0.15 K2669 110.93013  129.60886  216.39252   13.63796  0.2369418  0.23829201   2.5766953  0 MPO980544  7966  36 1938-2026 0.57 M-v 3Ek MPCORBFIT  0000   (1473) Ounas              20260412
01474   12.34  0.15 K2669 356.60685   84.15708  323.32276   26.67718  0.4884272  0.21772143   2.7365408  0 MPO964291  2501  28 1935-2025 0.70 M-v 3Ek MPCORBFIT  0005   (1474) Beira              20251117
01475   12.81  0.15 K2669  44.92618  201.66430  200.08023    4.50624  0.1680566  0.27365714   2.3496231  0 MPO980544  5441  36 1917-2026 0.71 M-v 3Ek MPCORBFIT  0000   (1475) Yalta              20260329
01476   12.91  0.15 K2669  35.92734  349.84299  330.45353    6.32424  0.1901837  0.28615760   2.2806879  0 E2026-M34  5990  33 1936-2026 0.65 M-v 3Ek MPCORBFIT  0000   (1476) Cox                20260619
01477   11.60  0.15 K2669 256.78885  105.42703  319.80230   15.80986  0.2657305  0.17137481   3.2099977  0 E2026-M45  5154  34 1938-2026 0.67 M-v 3Ek MPCORBFIT  0000   (1477) Bonsdorffia        20260619
01478   12.34  0.15 K2669 308.94079  162.70891  318.50444    7.83052  0.0896895  0.25453942   2.4658464  0 MPO980544  6328  36 1906-2026 0.61 M-v 3Ek MPCORBFIT  0000   (1478) Vihuri             20260206
01479   11.91  0.15 K2669  92.59909   79.56633   17.97732    7.29396  0.1947737  0.22542318   2.6738498  0 E2026-M09  5351  43 1916-2026 0.73 M-v 3Ek MPCORBFIT  0000   (1479) Inkeri             20260614
01480   13.20  0.15 K2669  28.06791   65.32880   63.56888    4.85856  0.1092484  0.30158311   2.2022403  0 E2026-M59  7032  33 1938-2026 0.62 M-v 3Ek MPCORBFIT  0000   (1480) Aunus              20260620
01481   10.45  0.15 K2669 159.58391  318.27342  353.52901    3.50817  0.0405070  0.18764170   3.0216893  0 MPO980544  8412  50 1933-2026 0.60 M-v 3Ek MPCORBFIT  0000   (1481) Tubingia           20260405
01482   11.04  0.15 K2669 283.86297  219.38133   70.96515    2.97159  0.0394708  0.20258421   2.8712146  0 E2026-M09  5441  51 1928-2026 0.70 M-v 3Ek MPCORBFIT  0000   (1482) Sebastiana         20260614
01483   12.01  0.15 K2669 257.35058   88.41405   71.75810    4.48962  0.1810356  0.22035276   2.7147117  0 E2026-M09  6656  42 1938-2026 0.62 M-v 3Ek MPCORBFIT  0000   (1483) Hakoila            20260130
01484   10.83  0.15 K2669 170.59563  126.85946   72.58776   17.29635  0.2073134  0.21784228   2.7355287  0 E2026-M09  4910  40 1933-2026 0.69 M-v 3Ek MPCLINUX   0000   (1484) Postrema           20260615
01485   11.84  0.15 K2669 232.04751   46.07650  297.30057    8.93428  0.1189541  0.18758130   3.0223379  0 E2026-M59  7441  42 1933-2026 0.58 M-v 3Ek MPCORBFIT  0000   (1485) Isa                20260620
01486   12.87  0.15 K2669 341.29298  351.14596  331.92415    0.07458  0.1251290  0.30237504   2.1983935  0 E2026-M59  7061  41 1938-2026 0.63 M-v 3Ek MPCORBFIT  0000   (1486) Marilyn            20260620
01487   11.29  0.15 K2669 141.55613  106.68589   97.03080    2.46726  0.1245729  0.17754569   3.1351811  0 E2026-L57  8550  49 1929-2026 0.61 M-v 3Ek MPCORBFIT  0000   (1487) Boda               20260606
01488   10.24  0.15 K2669 185.89350  115.25936  354.22429   10.55378  0.1136008  0.18572738   3.0424172  0 E2026-M59  5544  44 1905-2026 0.67 M-v 3Ek MPCORBFIT  0000   (1488) Aura               20260620
01489   11.74  0.15 K2669 111.85532   26.84419  154.55803    2.47270  0.1536062  0.17330857   3.1860752  0 E2026-M59  7815  39 1939-2026 0.63 M-v 3Ek MPCORBFIT  0000   (1489) Attila             20260620
01490   12.13  0.15 K2669 272.64023   90.64509  254.22571   10.02458  0.1554892  0.27319452   2.3522748  0 E2026-M59  6661  41 1931-2026 0.62 M-v 3Ek MPCORBFIT  0000   (1490) Limpopo            20260620
01491   11.39  0.15 K2669 157.11497  160.71622  312.99054    3.64017  0.1276516  0.16889303   3.2413672  0 E2026-M59  5457  44 1930-2026 0.70 M-v 3Ek MPCORBFIT  0000   (1491) Balduinus          20260620
01492   12.98  0.15 K2669 166.72074   81.84027  137.70103    6.05648  0.1171690  0.30777332   2.1726115  0 MPO964291  5918  34 1938-2025 0.66 M-v 3Ek MPCORBFIT  0000   (1492) Oppolzer           20251223
01493   12.11  0.15 K2669  71.09941    1.53972  330.53503    2.57594  0.2007565  0.26025825   2.4295903  0 MPO980545  5300  40 1908-2026 0.74 M-v 3Ek MPCORBFIT  0000   (1493) Sigrid             20260226
01494   12.29  0.15 K2669   7.10059  184.52772  194.97012    2.45688  0.1307102  0.30412323   2.1899607  0 MPO964291  5189  41 1938-2025 0.65 M-v 3Ek MPCLINUX   0000   (1494) Savo               20251118
01495   11.65  0.15 K2669 230.21556  269.61552   12.80956   12.71568  0.1541418  0.22967765   2.6407273  0 E2026-M59  9912  38 1930-2026 0.50 M-v 3Ek MPCORBFIT  0000   (1495) Helsinki           20260604
01496   12.56  0.15 K2669 333.04426    1.17142  294.25811    2.50397  0.1629916  0.30090144   2.2055650  0 E2026-M59  6990  40 1928-2026 0.62 M-v 3Ek MPCORBFIT  0000   (1496) Turku              20260620
01497   11.48  0.15 K2669 325.01018   27.75045  299.89471    1.05739  0.0828765  0.20009854   2.8949436  0 E2026-M59  5847  53 1933-2026 0.71 M-v 3Ek MPCORBFIT  0000   (1497) Tampere            20260620
01498   11.86  0.15 K2669  24.04571   96.97165  265.04742   12.66057  0.2345384  0.18023414   3.1039258  0 MPO980545  5365  33 1938-2026 0.69 M-v 3Ek MPCORBFIT  0000   (1498) Lahti              20260120
01499   11.44  0.15 K2669  84.00099   74.56722  239.54676   12.17618  0.1855592  0.22590164   2.6700729  0 MPO980545  7519  38 1938-2026 0.58 M-v 3Ek MPCORBFIT  0000   (1499) Pori               20260223
01500   12.74  0.15 K2669  32.01067   17.26834   19.86611    7.43265  0.1896617  0.29348559   2.2425641  0 MPO980545  8506  31 1938-2026 0.53 M-v 3Ek MPCORBFIT  0000   (1500) Jyvaskyla          20260210
01501   11.94  0.15 K2669 201.62338   14.06549   16.84988    7.29757  0.2406368  0.24287942   2.5441472  0 E2026-M59  5365  36 1930-2026 0.70 M-v 3Ek MPCORBFIT  0000   (1501) Baade              20260620
01502   11.48  0.15 K2669  98.54247  272.62485  204.27621    4.09315  0.0870551  0.21827156   2.7319408  0 E2026-M59  5749  49 1906-2026 0.72 M-v 3Ek MPCORBFIT  0000   (1502) Arenda             20260620
01503   10.63  0.15 K2669 175.12881  178.82989  316.80278   12.34361  0.1015037  0.23145080   2.6272229  0 E2026-M59  7677  44 1935-2026 0.56 M-v 3Ek MPCORBFIT  0000   (1503) Kuopio             20260620
01504   11.80  0.15 K2669 196.15598   51.36902   94.70689   11.04963  0.1558849  0.26505014   2.4002180  0 E2026-LA2  5843  36 1939-2026 0.66 M-v 3Ek MPCLINUX   0000   (1504) Lappeenranta       20260614
01505   11.43  0.15 K2669  20.77524  344.56142  248.12506   14.50520  0.1338033  0.22730569   2.6590664  0 E2026-M59  7239  41 1935-2026 0.62 M-v 3Ek MPCORBFIT  0000   (1505) Koranna            20260620
01506   12.12  0.15 K2669  22.83066   45.16119  234.45529   12.56555  0.2617691  0.23910248   2.5708693  0 E2026-M59  8180  32 1939-2026 0.58 M-v 3Ek MPCORBFIT  0000   (1506) Xosa               20260620
01507   13.70  0.15 K2669 139.38788   50.67320  292.76535    9.22275  0.2447103  0.27661956   2.3328177  0 E2026-L57  3661  30 1939-2026 0.73 M-v 3Ek MPCORBFIT  0000   (1507) Vaasa              20260504
01508   12.19  0.15 K2669 317.74331   93.60408   13.80469   28.73706  0.4192656  0.21413711   2.7669932  0 MPO964291  7631  31 1935-2025 0.44 M-v 3Ek MPCORBFIT  0005   (1508) Kemi               20251230
01509   12.65  0.15 K2669  22.18863  267.80681  283.47391   22.32147  0.0320883  0.38660915   1.8661847  0 E2026-M59  7691  32 1938-2026 0.52 M-v 3Ek MPCORBFIT  0006   (1509) Esclangona         20260620
